{
    "links": {
        "self": "http://www.neowsapp.com/rest/v1/neo/3766438?api_key=iIulBulltgU6a56xZRHN4H3l9WmuAYTsLGpBGhQ2"
    },
    "id": "3766438",
    "neo_reference_id": "3766438",
    "name": "(2017 AJ13)",
    "designation": "2017 AJ13",
    "nasa_jpl_url": "http://ssd.jpl.nasa.gov/sbdb.cgi?sstr=3766438",
    "absolute_magnitude_h": 24.1,
    "estimated_diameter": {
        "kilometers": {
            "estimated_diameter_min": 0.040230458,
            "estimated_diameter_max": 0.0899580388
        },
        "meters": {
            "estimated_diameter_min": 40.2304579834,
            "estimated_diameter_max": 89.9580388169
        },
        "miles": {
            "estimated_diameter_min": 0.0249980399,
            "estimated_diameter_max": 0.0558973165
        },
        "feet": {
            "estimated_diameter_min": 131.9896957704,
            "estimated_diameter_max": 295.1379320721
        }
    },
    "is_potentially_hazardous_asteroid": false,
    "close_approach_data": [
        {
            "close_approach_date": "2017-01-14",
            "close_approach_date_full": "2017-Jan-14 10:54",
            "epoch_date_close_approach": 1484391240000,
            "relative_velocity": {
                "kilometers_per_second": "10.6733761107",
                "kilometers_per_hour": "38424.1539984278",
                "miles_per_hour": "23875.2750219676"
            },
            "miss_distance": {
                "astronomical": "0.0172651401",
                "lunar": "6.7161394989",
                "kilometers": "2582828.184211587",
                "miles": "1604895.0136984206"
            },
            "orbiting_body": "Earth"
        }
    ],
    "orbital_data": {
        "orbit_id": "6",
        "orbit_determination_date": "2017-04-06 08:21:05",
        "first_observation_date": "2017-01-07",
        "last_observation_date": "2017-01-20",
        "data_arc_in_days": 13,
        "observations_used": 60,
        "orbit_uncertainty": "7",
        "minimum_orbit_intersection": ".0162084",
        "jupiter_tisserand_invariant": "3.758",
        "epoch_osculation": "2459000.5",
        "eccentricity": ".491698375683942",
        "semi_major_axis": "1.905923001120984",
        "inclination": "12.71470883987807",
        "ascending_node_longitude": "113.0205349818725",
        "orbital_period": "961.073170889624",
        "perihelion_distance": ".968783757291132",
        "perihelion_argument": "26.30040003093941",
        "aphelion_distance": "2.843062244950836",
        "perihelion_time": "2458748.239725020879",
        "mean_anomaly": "94.49197183230197",
        "mean_motion": ".3745812607241585",
        "equinox": "J2000",
        "orbit_class": {
            "orbit_class_type": "APO",
            "orbit_class_description": "Near-Earth asteroid orbits which cross the Earth’s orbit similar to that of 1862 Apollo",
            "orbit_class_range": "a (semi-major axis) > 1.0 AU; q (perihelion) < 1.017 AU"
        }
    },
    "is_sentry_object": false
}